[{"OBJECT_NAME":"STARLINK-5829","OBJECT_ID":"2023-058AG","EPOCH":"2026-03-09T22:14:50.967456","MEAN_MOTION":15.05648812,"ECCENTRICITY":0.00017544,"INCLINATION":97.6042,"RA_OF_ASC_NODE":71.4736,"ARG_OF_PERICENTER":79.4273,"MEAN_ANOMALY":280.7151,"EPHEMERIS_TYPE":0,"CLASSIFICATION_TYPE":"U","NORAD_CAT_ID":56347,"ELEMENT_SET_NO":999,"REV_AT_EPOCH":15823,"BSTAR":2.3016145e-5,"MEAN_MOTION_DOT":2.71e-6,"MEAN_MOTION_DDOT":0},{"OBJECT_NAME":"COSMOS 2251 DEB","OBJECT_ID":"1993-036SS","EPOCH":"2026-03-09T22:59:54.978144","MEAN_MOTION":15.02003149,"ECCENTRICITY":0.00206055,"INCLINATION":74.0288,"RA_OF_ASC_NODE":253.6967,"ARG_OF_PERICENTER":277.4018,"MEAN_ANOMALY":234.4946,"EPHEMERIS_TYPE":0,"CLASSIFICATION_TYPE":"U","NORAD_CAT_ID":34449,"ELEMENT_SET_NO":999,"REV_AT_EPOCH":89999,"BSTAR":0.0029470254,"MEAN_MOTION_DOT":0.00038984,"MEAN_MOTION_DDOT":0}]
